APRIZESAT 2             
1 28366U 04025A   26066.41850516  .00000514  00000+0  17262-3 0  9996
2 28366  98.0906 238.2100 0105332 196.6967 163.0745 14.37986762137014
SAUDICOMSAT 1           
1 28369U 04025D   26066.54372213  .00000735  00000+0  17961-3 0  9997
2 28369  98.5810  73.9206 0031710 336.9380  23.0391 14.55386308149344
SAUDICOMSAT 2           
1 28370U 04025E   26066.54525822  .00000471  00000+0  13217-3 0  9992
2 28370  98.6687  75.9025 0055087 206.4161 153.4222 14.49907431145370
APRIZESAT 1             
1 28372U 04025G   26066.49617272  .00000466  00000+0  12664-3 0  9998
2 28372  98.6346  74.4375 0045818 104.0824 256.5469 14.51713128147153
NANOSAT-1               
1 28493U 04049B   26066.35416975  .00002122  00000+0  28835-3 0  9998
2 28493  98.2094 200.6390 0002865 255.4170 104.6723 14.79913078140383
SAUDICOMSAT 7           
1 31119U 07012C   26066.48683958  .00001037  00000+0  19453-3 0  9991
2 31119  98.3678  38.6057 0056334 153.9981 206.4072 14.65967093  7530
SAUDICOMSAT 6           
1 31121U 07012E   26066.42281248  .00001197  00000+0  23863-3 0  9991
2 31121  98.3987  32.1228 0070673 283.9942  75.3408 14.62427572  5318
SAUDICOMSAT 5           
1 31124U 07012H   26066.46525671  .00001376  00000+0  24503-3 0  9990
2 31124  98.3390  39.3504 0048849  85.7536 274.9248 14.67997836  8673
SAUDICOMSAT 3           
1 31125U 07012J   26066.46471666  .00001876  00000+0  31428-3 0  9994
2 31125  98.3047  39.9100 0039687  15.5658 344.6758 14.70519178  9874
SAUDICOMSAT 4           
1 31127U 07012L   26066.48610255  .00000984  00000+0  19089-3 0  9995
2 31127  98.3880  37.0560 0062732 215.2541 144.4505 14.64375199  6405
APRIZESAT 4             
1 35684U 09041D   26066.63165577  .00001224  00000+0  15288-3 0  9995
2 35684  98.1490 139.9119 0042188 291.5507  68.1212 14.83704406896307
APRIZESAT 3             
1 35686U 09041F   26066.37006859  .00002715  00000+0  23902-3 0  9993
2 35686  98.1900 214.8270 0063110  44.2825 316.3419 14.95892752901152
S-NET D                 
1 43186U 18014G   26066.16564860  .00006907  00000+0  36697-3 0  9997
2 43186  97.5435 331.6308 0009109  23.3376 336.8268 15.15583928443301
S-NET B                 
1 43187U 18014H   26066.63732498  .00008500  00000+0  45091-3 0  9993
2 43187  97.5441 332.0823 0009572  16.7188 343.4358 15.15567285443376
S-NET A                 
1 43188U 18014J   26066.62716316  .00009044  00000+0  47904-3 0  9993
2 43188  97.5450 332.2626 0009474  17.3336 342.8218 15.15600983443374
S-NET C                 
1 43189U 18014K   26066.64066018  .00008339  00000+0  44239-3 0  9997
2 43189  97.5467 332.3350 0010625   9.1947 350.9478 15.15559775441924
SALSAT                  
1 46495U 20068K   26066.51222839  .00013690  00000+0  50125-3 0  9990
2 46495  97.8857  63.5159 0008413 306.1351  53.9108 15.28132776299826
