[{"OBJECT_NAME":"APRIZESAT 2","OBJECT_ID":"2004-025A","EPOCH":"2026-03-07T10:02:38.845824","MEAN_MOTION":14.37986762,"ECCENTRICITY":0.01053328,"INCLINATION":98.0906,"RA_OF_ASC_NODE":238.21,"ARG_OF_PERICENTER":196.6967,"MEAN_ANOMALY":163.0745,"EPHEMERIS_TYPE":0,"CLASSIFICATION_TYPE":"U","NORAD_CAT_ID":28366,"ELEMENT_SET_NO":999,"REV_AT_EPOCH":13701,"BSTAR":0.00017262121,"MEAN_MOTION_DOT":5.14e-6,"MEAN_MOTION_DDOT":0},{"OBJECT_NAME":"SAUDICOMSAT 1","OBJECT_ID":"2004-025D","EPOCH":"2026-03-07T13:02:57.592032","MEAN_MOTION":14.55386308,"ECCENTRICITY":0.003171,"INCLINATION":98.581,"RA_OF_ASC_NODE":73.9206,"ARG_OF_PERICENTER":336.938,"MEAN_ANOMALY":23.0391,"EPHEMERIS_TYPE":0,"CLASSIFICATION_TYPE":"U","NORAD_CAT_ID":28369,"ELEMENT_SET_NO":999,"REV_AT_EPOCH":14934,"BSTAR":0.00017961378,"MEAN_MOTION_DOT":7.35e-6,"MEAN_MOTION_DDOT":0},{"OBJECT_NAME":"SAUDICOMSAT 2","OBJECT_ID":"2004-025E","EPOCH":"2026-03-07T13:05:10.310208","MEAN_MOTION":14.49907431,"ECCENTRICITY":0.00550871,"INCLINATION":98.6687,"RA_OF_ASC_NODE":75.9025,"ARG_OF_PERICENTER":206.4161,"MEAN_ANOMALY":153.4222,"EPHEMERIS_TYPE":0,"CLASSIFICATION_TYPE":"U","NORAD_CAT_ID":28370,"ELEMENT_SET_NO":999,"REV_AT_EPOCH":14537,"BSTAR":0.00013216781,"MEAN_MOTION_DOT":4.71e-6,"MEAN_MOTION_DDOT":0},{"OBJECT_NAME":"APRIZESAT 1","OBJECT_ID":"2004-025G","EPOCH":"2026-03-07T11:54:29.323008","MEAN_MOTION":14.51713128,"ECCENTRICITY":0.00458188,"INCLINATION":98.6346,"RA_OF_ASC_NODE":74.4375,"ARG_OF_PERICENTER":104.0824,"MEAN_ANOMALY":256.5469,"EPHEMERIS_TYPE":0,"CLASSIFICATION_TYPE":"U","NORAD_CAT_ID":28372,"ELEMENT_SET_NO":999,"REV_AT_EPOCH":14715,"BSTAR":0.00012664139,"MEAN_MOTION_DOT":4.66e-6,"MEAN_MOTION_DDOT":0},{"OBJECT_NAME":"NANOSAT-1","OBJECT_ID":"2004-049B","EPOCH":"2026-03-07T08:30:00.266400","MEAN_MOTION":14.79913078,"ECCENTRICITY":0.00028654,"INCLINATION":98.2094,"RA_OF_ASC_NODE":200.639,"ARG_OF_PERICENTER":255.417,"MEAN_ANOMALY":104.6723,"EPHEMERIS_TYPE":0,"CLASSIFICATION_TYPE":"U","NORAD_CAT_ID":28493,"ELEMENT_SET_NO":999,"REV_AT_EPOCH":14038,"BSTAR":0.00028835162,"MEAN_MOTION_DOT":2.122e-5,"MEAN_MOTION_DDOT":0},{"OBJECT_NAME":"SAUDICOMSAT 7","OBJECT_ID":"2007-012C","EPOCH":"2026-03-07T11:41:02.939712","MEAN_MOTION":14.65967093,"ECCENTRICITY":0.00563349,"INCLINATION":98.3678,"RA_OF_ASC_NODE":38.6057,"ARG_OF_PERICENTER":153.9981,"MEAN_ANOMALY":206.4072,"EPHEMERIS_TYPE":0,"CLASSIFICATION_TYPE":"U","NORAD_CAT_ID":31119,"ELEMENT_SET_NO":999,"REV_AT_EPOCH":753,"BSTAR":0.00019453052,"MEAN_MOTION_DOT":1.037e-5,"MEAN_MOTION_DDOT":0},{"OBJECT_NAME":"SAUDICOMSAT 6","OBJECT_ID":"2007-012E","EPOCH":"2026-03-07T10:08:50.998272","MEAN_MOTION":14.62427572,"ECCENTRICITY":0.0070673,"INCLINATION":98.3987,"RA_OF_ASC_NODE":32.1228,"ARG_OF_PERICENTER":283.9942,"MEAN_ANOMALY":75.3408,"EPHEMERIS_TYPE":0,"CLASSIFICATION_TYPE":"U","NORAD_CAT_ID":31121,"ELEMENT_SET_NO":999,"REV_AT_EPOCH":531,"BSTAR":0.00023863417,"MEAN_MOTION_DOT":1.197e-5,"MEAN_MOTION_DDOT":0},{"OBJECT_NAME":"SAUDICOMSAT 5","OBJECT_ID":"2007-012H","EPOCH":"2026-03-07T11:09:58.179744","MEAN_MOTION":14.67997836,"ECCENTRICITY":0.00488499,"INCLINATION":98.339,"RA_OF_ASC_NODE":39.3504,"ARG_OF_PERICENTER":85.7536,"MEAN_ANOMALY":274.9248,"EPHEMERIS_TYPE":0,"CLASSIFICATION_TYPE":"U","NORAD_CAT_ID":31124,"ELEMENT_SET_NO":999,"REV_AT_EPOCH":867,"BSTAR":0.00024503176,"MEAN_MOTION_DOT":1.376e-5,"MEAN_MOTION_DDOT":0},{"OBJECT_NAME":"SAUDICOMSAT 3","OBJECT_ID":"2007-012J","EPOCH":"2026-03-07T11:09:11.519424","MEAN_MOTION":14.70519178,"ECCENTRICITY":0.00396871,"INCLINATION":98.3047,"RA_OF_ASC_NODE":39.91,"ARG_OF_PERICENTER":15.5658,"MEAN_ANOMALY":344.6758,"EPHEMERIS_TYPE":0,"CLASSIFICATION_TYPE":"U","NORAD_CAT_ID":31125,"ELEMENT_SET_NO":999,"REV_AT_EPOCH":987,"BSTAR":0.00031427758,"MEAN_MOTION_DOT":1.876e-5,"MEAN_MOTION_DDOT":0},{"OBJECT_NAME":"SAUDICOMSAT 4","OBJECT_ID":"2007-012L","EPOCH":"2026-03-07T11:39:59.260320","MEAN_MOTION":14.64375199,"ECCENTRICITY":0.00627322,"INCLINATION":98.388,"RA_OF_ASC_NODE":37.056,"ARG_OF_PERICENTER":215.2541,"MEAN_ANOMALY":144.4505,"EPHEMERIS_TYPE":0,"CLASSIFICATION_TYPE":"U","NORAD_CAT_ID":31127,"ELEMENT_SET_NO":999,"REV_AT_EPOCH":640,"BSTAR":0.00019089204,"MEAN_MOTION_DOT":9.84e-6,"MEAN_MOTION_DDOT":0},{"OBJECT_NAME":"APRIZESAT 4","OBJECT_ID":"2009-041D","EPOCH":"2026-03-07T15:09:35.058528","MEAN_MOTION":14.83704406,"ECCENTRICITY":0.00421883,"INCLINATION":98.149,"RA_OF_ASC_NODE":139.9119,"ARG_OF_PERICENTER":291.5507,"MEAN_ANOMALY":68.1212,"EPHEMERIS_TYPE":0,"CLASSIFICATION_TYPE":"U","NORAD_CAT_ID":35684,"ELEMENT_SET_NO":999,"REV_AT_EPOCH":89630,"BSTAR":0.0001528791,"MEAN_MOTION_DOT":1.224e-5,"MEAN_MOTION_DDOT":0},{"OBJECT_NAME":"APRIZESAT 3","OBJECT_ID":"2009-041F","EPOCH":"2026-03-07T08:52:53.926176","MEAN_MOTION":14.95892752,"ECCENTRICITY":0.00631105,"INCLINATION":98.19,"RA_OF_ASC_NODE":214.827,"ARG_OF_PERICENTER":44.2825,"MEAN_ANOMALY":316.3419,"EPHEMERIS_TYPE":0,"CLASSIFICATION_TYPE":"U","NORAD_CAT_ID":35686,"ELEMENT_SET_NO":999,"REV_AT_EPOCH":90115,"BSTAR":0.00023902204,"MEAN_MOTION_DOT":2.715e-5,"MEAN_MOTION_DDOT":0},{"OBJECT_NAME":"S-NET D","OBJECT_ID":"2018-014G","EPOCH":"2026-03-07T03:58:32.039040","MEAN_MOTION":15.15583928,"ECCENTRICITY":0.00091091,"INCLINATION":97.5435,"RA_OF_ASC_NODE":331.6308,"ARG_OF_PERICENTER":23.3376,"MEAN_ANOMALY":336.8268,"EPHEMERIS_TYPE":0,"CLASSIFICATION_TYPE":"U","NORAD_CAT_ID":43186,"ELEMENT_SET_NO":999,"REV_AT_EPOCH":44330,"BSTAR":0.00036697338,"MEAN_MOTION_DOT":6.907e-5,"MEAN_MOTION_DDOT":0},{"OBJECT_NAME":"S-NET B","OBJECT_ID":"2018-014H","EPOCH":"2026-03-07T15:17:44.878272","MEAN_MOTION":15.15567285,"ECCENTRICITY":0.00095723,"INCLINATION":97.5441,"RA_OF_ASC_NODE":332.0823,"ARG_OF_PERICENTER":16.7188,"MEAN_ANOMALY":343.4358,"EPHEMERIS_TYPE":0,"CLASSIFICATION_TYPE":"U","NORAD_CAT_ID":43187,"ELEMENT_SET_NO":999,"REV_AT_EPOCH":44337,"BSTAR":0.00045090676,"MEAN_MOTION_DOT":8.5e-5,"MEAN_MOTION_DDOT":0},{"OBJECT_NAME":"S-NET A","OBJECT_ID":"2018-014J","EPOCH":"2026-03-07T15:03:06.897024","MEAN_MOTION":15.15600983,"ECCENTRICITY":0.00094745,"INCLINATION":97.545,"RA_OF_ASC_NODE":332.2626,"ARG_OF_PERICENTER":17.3336,"MEAN_ANOMALY":342.8218,"EPHEMERIS_TYPE":0,"CLASSIFICATION_TYPE":"U","NORAD_CAT_ID":43188,"ELEMENT_SET_NO":999,"REV_AT_EPOCH":44337,"BSTAR":0.00047904234,"MEAN_MOTION_DOT":9.044e-5,"MEAN_MOTION_DDOT":0},{"OBJECT_NAME":"S-NET C","OBJECT_ID":"2018-014K","EPOCH":"2026-03-07T15:22:33.039552","MEAN_MOTION":15.15559775,"ECCENTRICITY":0.00106253,"INCLINATION":97.5467,"RA_OF_ASC_NODE":332.335,"ARG_OF_PERICENTER":9.1947,"MEAN_ANOMALY":350.9478,"EPHEMERIS_TYPE":0,"CLASSIFICATION_TYPE":"U","NORAD_CAT_ID":43189,"ELEMENT_SET_NO":999,"REV_AT_EPOCH":44192,"BSTAR":0.00044239193,"MEAN_MOTION_DOT":8.339e-5,"MEAN_MOTION_DDOT":0},{"OBJECT_NAME":"SALSAT","OBJECT_ID":"2020-068K","EPOCH":"2026-03-07T12:17:36.532896","MEAN_MOTION":15.28132776,"ECCENTRICITY":0.00084131,"INCLINATION":97.8857,"RA_OF_ASC_NODE":63.5159,"ARG_OF_PERICENTER":306.1351,"MEAN_ANOMALY":53.9108,"EPHEMERIS_TYPE":0,"CLASSIFICATION_TYPE":"U","NORAD_CAT_ID":46495,"ELEMENT_SET_NO":999,"REV_AT_EPOCH":29982,"BSTAR":0.0005012467,"MEAN_MOTION_DOT":0.0001369,"MEAN_MOTION_DDOT":0}]
